NORAD_CAT_ID,OBJECT_NAME,OBJECT_TYPE,EPOCH,MEAN_MOTION,ECCENTRICITY,INCLINATION,RA_OF_ASC_NODE,ARG_OF_PERICENTER,MEAN_ANOMALY,BSTAR,MEAN_MOTION_DOT,MEAN_MOTION_DDOT,TLE_LINE0,TLE_LINE1,TLE_LINE2,SEMIMAJOR_AXIS,PERIOD,APOGEE,PERIGEE,DECAYED
52706.0,STARLINK-3970,PAYLOAD,2024-05-15 11:40:28,15.08846383,0.0001487,53.2156,231.3533,88.6488,271.4675,-0.00013347,-2.412e-05,0.0,0 STARLINK-3970,1 52706U 22053BC  24136.48644037 -.00002412  00000-0 -13347-3 0  9996,2 52706  53.2156 231.3533 0001487  88.6488 271.4675 15.08846383110769,6917.861,95.437,540.755,538.697,0.0
52706.0,STARLINK-3970,PAYLOAD,2024-05-15 13:15:51,15.08850182,0.0001421,53.2162,231.0571,91.4104,268.7051,-9.5502e-05,-1.808e-05,0.0,0 STARLINK-3970,1 52706U 22053BC  24136.55268350 -.00001808  00000-0 -95502-4 0  9996,2 52706  53.2162 231.0571 0001421  91.4104 268.7051 15.08850182111209,6917.849,95.437,540.697,538.731,0.0
52706.0,STARLINK-3970,PAYLOAD,2024-05-15 22:48:08,15.08865531,0.0001264,53.2169,229.2711,91.3728,268.7409,0.00013641,1.885e-05,0.0,0 STARLINK-3970,1 52706U 22053BC  24136.95010111  .00001885  00000-0  13641-3 0  9996,2 52706  53.2169 229.2711 0001264  91.3728 268.7409 15.08865531110836,6917.802,95.436,540.542,538.793,0.0
52706.0,STARLINK-3970,PAYLOAD,2024-05-16 13:06:38,15.0884559,0.00014,53.2165,226.6024,102.6603,257.4546,9.2596e-05,1.186e-05,0.0,0 STARLINK-3970,1 52706U 22053BC  24137.54627519  .00001186  00000-0  92596-4 0  9999,2 52706  53.2165 226.6024 0001400 102.6603 257.4546 15.08845590110920,6917.863,95.437,540.697,538.76,0.0
52706.0,STARLINK-3970,PAYLOAD,2024-05-16 22:38:54,15.08868048,0.0001384,53.2167,224.8089,65.9221,294.1916,0.00026666,3.962e-05,0.0,0 STARLINK-3970,1 52706U 22053BC  24137.94369096  .00003962  00000-0  26666-3 0  9994,2 52706  53.2167 224.8089 0001384  65.9221 294.1916 15.08868048110989,6917.795,95.436,540.617,538.702,0.0
52706.0,STARLINK-3970,PAYLOAD,2024-05-17 11:22:03,15.08825782,0.0001732,53.2176,222.4343,84.2977,275.8213,-4.0805e-05,-9.37e-06,0.0,0 STARLINK-3970,1 52706U 22053BC  24138.47364794 -.00000937  00000-0 -40805-4 0  9996,2 52706  53.2176 222.4343 0001732  84.2977 275.8213 15.08825782111069,6917.924,95.438,540.987,538.591,0.0
52706.0,STARLINK-3970,PAYLOAD,2024-05-17 22:29:45,15.08824414,0.0001476,53.2164,220.3543,94.2282,265.8879,-0.00014225,-2.55e-05,0.0,0 STARLINK-3970,1 52706U 22053BC  24138.93733357 -.00002550  00000-0 -14225-3 0  9991,2 52706  53.2164 220.3543 0001476  94.2282 265.8879 15.08824414111563,6917.928,95.439,540.814,538.772,0.0
52706.0,STARLINK-3970,PAYLOAD,2024-05-18 12:48:10,15.08867021,0.000115,53.2147,217.6799,130.0552,230.0541,0.00025958,3.849e-05,0.0,0 STARLINK-3970,1 52706U 22053BC  24139.53345410  .00003849  00000-0  25958-3 0  9992,2 52706  53.2147 217.6799 0001150 130.0552 230.0541 15.08867021111228,6917.798,95.436,540.458,538.867,0.0
52706.0,STARLINK-3970,PAYLOAD,2024-05-18 22:20:28,15.08874836,0.000125,53.2176,215.8911,91.397,268.7166,7.7575e-05,9.48e-06,0.0,0 STARLINK-3970,1 52706U 22053BC  24139.93088749  .00000948  00000-0  77575-4 0  9995,2 52706  53.2176 215.8911 0001250  91.3970 268.7166 15.08874836111717,6917.774,95.435,540.504,538.774,0.0
52706.0,STARLINK-3970,PAYLOAD,2024-05-19 12:39:01,15.08811728,0.0001378,53.216,213.2164,104.6063,255.5082,3.5061e-05,2.7e-06,0.0,0 STARLINK-3970,1 52706U 22053BC  24140.52709812  .00000270  00000-0  35061-4 0  9995,2 52706  53.2160 213.2164 0001378 104.6063 255.5082 15.08811728111806,6917.967,95.439,540.785,538.879,0.0
52706.0,STARLINK-3970,PAYLOAD,2024-05-20 10:54:23,15.08855782,0.0001379,53.2163,209.0531,75.4235,284.691,-6.5798e-05,-1.335e-05,0.0,0 STARLINK-3970,1 52706U 22053BC  24141.45443688 -.00001335  00000-0 -65798-4 0  9999,2 52706  53.2163 209.0531 0001379  75.4235 284.6910 15.08855782111516,6917.832,95.437,540.651,538.743,0.0
52706.0,STARLINK-3970,PAYLOAD,2024-05-21 04:23:37,15.08832818,0.0001378,53.2155,205.7828,84.5445,275.5705,0.00037633,5.705e-05,0.0,0 STARLINK-3970,1 52706U 22053BC  24142.18307446  .00005705  00000-0  37633-3 0  9990,2 52706  53.2155 205.7828 0001378  84.5445 275.5705 15.08832818111620,6917.902,95.438,540.721,538.814,0.0
52706.0,STARLINK-3970,PAYLOAD,2024-05-21 09:09:47,15.08825475,0.0001186,53.2161,204.883,125.6631,234.4471,0.00027891,4.152e-05,0.0,0 STARLINK-3970,1 52706U 22053BC  24142.38180028  .00004152  00000-0  27891-3 0  9997,2 52706  53.2161 204.8830 0001186 125.6631 234.4471 15.08825475111659,6917.925,95.438,540.61,538.969,0.0
52706.0,STARLINK-3970,PAYLOAD,2024-05-22 04:14:25,15.08865786,8.68e-05,53.2157,201.3145,97.4791,262.6299,-0.00039032,-6.499e-05,0.0,0 STARLINK-3970,1 52706U 22053BC  24143.17668410 -.00006499  00000-0 -39032-3 0  9999,2 52706  53.2157 201.3145 0000868  97.4791 262.6299 15.08865786111777,6917.802,95.436,540.267,539.066,0.0
52706.0,STARLINK-3970,PAYLOAD,2024-05-22 09:00:34,15.08855101,9.36e-05,53.215,200.4252,52.7569,307.3508,-0.00016372,-2.893e-05,0.0,0 STARLINK-3970,1 52706U 22053BC  24143.37540002 -.00002893  00000-0 -16372-3 0  9993,2 52706  53.2150 200.4252 0000936  52.7569 307.3508 15.08855101112234,6917.834,95.437,540.347,539.052,0.0
52706.0,STARLINK-3970,PAYLOAD,2024-05-23 04:05:12,15.08831463,9.8e-05,53.2159,196.8607,83.9518,276.1585,6.2502e-05,7.07e-06,0.0,0 STARLINK-3970,1 52706U 22053BC  24144.17028456  .00000707  00000-0  62502-4 0  9993,2 52706  53.2159 196.8607 0000980  83.9518 276.1585 15.08831463111922,6917.906,95.438,540.449,539.094,0.0
52706.0,STARLINK-3970,PAYLOAD,2024-05-23 10:26:45,15.0882834,0.0001057,53.2161,195.6709,88.2475,271.8639,3.2565e-05,2.3e-06,0.0,0 STARLINK-3970,1 52706U 22053BC  24144.43524900  .00000230  00000-0  32565-4 0  9994,2 52706  53.2161 195.6709 0001057  88.2475 271.8639 15.08828340112395,6917.916,95.438,540.512,539.05,0.0
52706.0,STARLINK-3970,PAYLOAD,2024-05-24 08:42:09,15.08838755,0.0001085,53.2155,191.5074,91.7396,268.372,5.3887e-05,5.7e-06,0.0,0 STARLINK-3970,1 52706U 22053BC  24145.36260509  .00000570  00000-0  53887-4 0  9996,2 52706  53.2155 191.5074 0001085  91.7396 268.3720 15.08838755112102,6917.884,95.438,540.5,538.999,0.0
52706.0,STARLINK-3970,PAYLOAD,2024-05-24 13:28:18,15.088532,0.0001348,53.2153,190.6142,105.6006,254.5135,-0.00012689,-2.308e-05,0.0,0 STARLINK-3970,1 52706U 22053BC  24145.56132025 -.00002308  00000-0 -12689-3 0  9996,2 52706  53.2153 190.6142 0001348 105.6006 254.5135 15.08853200112560,6917.84,95.437,540.638,538.773,0.0
52706.0,STARLINK-3970,PAYLOAD,2024-05-24 19:49:49,15.08851903,2.61e-05,53.2167,189.4324,111.9643,248.1377,0.00017248,2.459e-05,0.0,0 STARLINK-3970,1 52706U 22053BC  24145.82626946  .00002459  00000-0  17248-3 0  9996,2 52706  53.2167 189.4324 0000261 111.9643 248.1377 15.08851903112175,6917.844,95.437,539.89,539.528,0.0
52706.0,STARLINK-3970,PAYLOAD,2024-05-25 02:11:23,15.08842761,0.0001943,53.2165,188.2422,82.6366,277.4847,0.00015578,2.192e-05,0.0,0 STARLINK-3970,1 52706U 22053BC  24146.09124173  .00002192  00000-0  15578-3 0  9999,2 52706  53.2165 188.2422 0001943  82.6366 277.4847 15.08842761112217,6917.872,95.437,541.081,538.393,0.0
52706.0,STARLINK-3970,PAYLOAD,2024-05-25 10:08:19,15.08829785,0.0001227,53.2165,186.7515,88.0617,272.0516,6.7052e-05,7.79e-06,0.0,0 STARLINK-3970,1 52706U 22053BC  24146.42245230  .00000779  00000-0  67052-4 0  9998,2 52706  53.2165 186.7515 0001227  88.0617 272.0516 15.08829785112267,6917.912,95.438,540.625,538.928,0.0
52706.0,STARLINK-3970,PAYLOAD,2024-05-26 11:34:29,15.0884017,9.03e-05,53.2162,181.9918,92.3805,267.7291,7.3611e-05,8.84e-06,0.0,0 STARLINK-3970,1 52706U 22053BC  24147.48228607  .00000884  00000-0  73611-4 0  9999,2 52706  53.2162 181.9918 0000903  92.3805 267.7291 15.08840170112425,6917.88,95.438,540.37,539.12,0.0
52706.0,STARLINK-3970,PAYLOAD,2024-05-26 19:31:24,15.08846275,8.55e-05,53.2159,180.5074,74.5522,285.5564,0.00013584,1.875e-05,0.0,0 STARLINK-3970,1 52706U 22053BC  24147.81347946  .00001875  00000-0  13584-3 0  9997,2 52706  53.2159 180.5074 0000855  74.5522 285.5564 15.08846275112909,6917.861,95.437,540.318,539.135,0.0
52706.0,STARLINK-3970,PAYLOAD,2024-05-27 01:52:57,15.08861146,0.0001199,53.2162,179.3191,78.2596,281.853,-0.00020085,-3.485e-05,0.0,0 STARLINK-3970,1 52706U 22053BC  24148.07843812 -.00003485  00000-0 -20085-3 0  9994,2 52706  53.2162 179.3191 0001199  78.2596 281.8530 15.08861146112516,6917.816,95.436,540.51,538.851,0.0
52706.0,STARLINK-3970,PAYLOAD,2024-05-27 11:25:16,15.08840106,0.0001249,53.2162,177.5333,85.9079,274.2056,7.7478e-05,9.45e-06,0.0,0 STARLINK-3970,1 52706U 22053BC  24148.47588565  .00000945  00000-0  77478-4 0  9994,2 52706  53.2162 177.5333 0001249  85.9079 274.2056 15.08840106112579,6917.88,95.438,540.609,538.881,0.0
52706.0,STARLINK-3970,PAYLOAD,2024-05-28 08:05:17,15.08842866,0.0001249,53.216,173.6675,88.9718,271.1417,2.0257e-05,3.5e-07,0.0,0 STARLINK-3970,1 52706U 22053BC  24149.33700423  .00000035  00000-0  20257-4 0  9992,2 52706  53.2160 173.6675 0001249  88.9718 271.1417 15.08842866113131,6917.872,95.437,540.601,538.873,0.0
52706.0,STARLINK-3970,PAYLOAD,2024-05-29 04:45:17,15.08840829,0.0001249,53.216,169.8019,87.5196,272.5939,3.9542e-06,-2.25e-06,0.0,0 STARLINK-3970,1 52706U 22053BC  24150.19812420 -.00000225  00000-0  39542-5 0  9999,2 52706  53.2160 169.8019 0001249  87.5196 272.5939 15.08840829112832,6917.878,95.438,540.607,538.879,0.0
52706.0,STARLINK-3970,PAYLOAD,2024-05-29 07:56:04,15.08840565,0.0001249,53.216,169.2072,86.9859,273.1276,1.2896e-06,-2.67e-06,0.0,0 STARLINK-3970,1 52706U 22053BC  24150.33060425 -.00000267  00000-0  12896-5 0  9994,2 52706  53.2160 169.2072 0001249  86.9859 273.1276 15.08840565113282,6917.879,95.438,540.608,538.88,0.0
52706.0,STARLINK-3970,PAYLOAD,2024-05-30 07:46:51,15.08838816,0.000126,53.2158,164.7465,83.3655,276.7481,1.4212e-05,-6.2e-07,0.0,0 STARLINK-3970,1 52706U 22053BC  24151.32420522 -.00000062  00000-0  14212-4 0  9998,2 52706  53.2158 164.7465 0001260  83.3655 276.7481 15.08838816113006,6917.884,95.438,540.621,538.877,0.0
